HST                     
1 20580U 90037B   25145.47119625  .00004255  00000+0  15702-3 0  9999
2 20580  28.4672 198.8675 0002574 187.4993 172.5563 15.25087940729210
POLAR                   
1 23802U 96013A   25144.85356679  .00000144  00000+0  00000+0 0  9996
2 23802  79.4234 231.2871 6105803 222.1868  69.8345  1.29846795139810
SWAS                    
1 25560U 98071A   25145.45248087  .00001949  00000+0  14047-3 0  9999
2 25560  69.8945 144.5857 0004659 164.7148 195.4156 15.05969221438826
CXO                     
1 25867U 99040B   25148.27677612  .00000466  00000+0  00000+0 0  9992
2 25867  49.1278 130.5538 8458675 309.2608 359.6311  0.37806332 15867
XMM-NEWTON              
1 25989U 99066A   25147.43479641  .00000010  00000+0  00000+0 0  9999
2 25989  66.3505 288.0756 4861184  71.6593   0.1507  0.50130887 21063
TERRA                   
1 25994U 99068A   25145.64533251  .00000422  00000+0  95860-4 0  9996
2 25994  97.9991 204.3728 0002872  42.4522 108.9768 14.60687669353024
CLUSTER II-FM7 (SAMBA)  
1 26410U 00041A   25146.99811675  .00001544  00000+0  00000+0 0  9994
2 26410 144.0346  10.5848 8336174 225.8683   1.1127  0.44842779 18577
CLUSTER II-FM5 (RUMBA)  
1 26463U 00045A   25142.19549594  .00004456  00000+0  00000+0 0  9997
2 26463 152.5010  72.0032 9066245 290.3471   1.9446  0.42919517 18459
CLUSTER II-FM8 (TANGO)  
1 26464U 00045B   25146.16603293  .00001554  00000+0  00000+0 0  9992
2 26464 144.2860  10.9124 8339109 226.0680   0.5155  0.44417139 18584
ODIN                    
1 26702U 01007A   25145.49922437  .00014977  00000+0  38585-3 0  9991
2 26702  97.4468 168.7158 0007735 131.4787 228.7124 15.39280549329260
TIMED                   
1 26998U 01055B   25144.91670207  .00001259  00000+0  12198-3 0  9993
2 26998  74.0683 295.9545 0001742 243.0641 117.0365 14.93911209272819
CORIOLIS                
1 27640U 03001A   25144.98409435  .00000113  00000+0  73950-4 0  9993
2 27640  98.7126 152.8309 0012904 249.3703 110.6090 14.19785362159138
SORCE                   
1 27651U 03004A   25145.13631572  .00003109  00000+0  25373-3 0  9998
2 27651  39.9917 310.1807 0016697 142.9139 217.2811 15.00445700213531
MOST                    
1 27843U 03031D   25145.45041097  .00000069  00000+0  51856-4 0  9991
2 27843  98.7056 153.5819 0008801 295.0490  64.9774 14.21205095135633
SCISAT 1                
1 27858U 03036A   25145.30724289  .00000635  00000+0  87312-4 0  9992
2 27858  73.9305 221.5654 0007419   3.9538 356.1695 14.80697560174028
SWIFT                   
1 28485U 04047A   25145.49577282  .00017575  00000+0  44104-3 0  9993
2 28485  20.5542 218.0767 0006065  86.2232 273.8901 15.37687501126594
HINODE (SOLAR-B)        
1 29479U 06041A   25145.48885063  .00000824  00000+0  15225-3 0  9992
2 29479  98.0723 162.1281 0019186  78.7883 281.5477 14.67886605997975
SHIJIAN-6 02A (SJ-6 02A)
1 29505U 06046A   25145.54469021  .00004324  00000+0  26103-3 0  9992
2 29505  97.6828 179.1677 0004691  56.5002 303.6675 15.11247551 13612
SHIJIAN-6 02B (SJ-6 02B)
1 29506U 06046B   25145.57919428  .00000544  00000+0  48720-4 0  9997
2 29506  97.7095 173.2642 0001883 315.8324  44.2748 14.99834604 12619
FGRST (GLAST)           
1 33053U 08029A   25145.28884178  .00003063  00000+0  11982-3 0  9991
2 33053  25.5830  11.8085 0009180  79.2433 280.9138 15.21016688936656
SDO                     
1 36395U 10005A   25145.41635522 -.00000069  00000+0  00000+0 0  9991
2 36395  33.8394  92.2742 0000402  92.6867 106.4173  1.00271089 56177
CRYOSAT 2               
1 36508U 10013A   25145.61261920  .00000209  00000+0  51034-4 0  9998
2 36508  92.0104 183.6967 0002349 116.6447 243.5001 14.51916057801842
X-SAT                   
1 37389U 11015C   25145.52794044  .00000099  00000+0  59748-4 0  9994
2 37389  98.3113 137.0389 0014996  45.2625 314.9773 14.25035547732463
GCOM-W1 (SHIZUKU)       
1 38337U 12025A   25145.62070020  .00000506  00000+0  12249-3 0  9999
2 38337  98.2015  86.7477 0001632  83.4782  89.5211 14.57092095692593
NUSTAR                  
1 38358U 12031A   25145.58335648 -.00000240  00000+0 -74436-4 0  9998
2 38358   6.0275  49.8791 0007437 126.8795 298.1486 15.03683558  1302
NEOSSAT                 
1 39089U 13009D   25145.44486684  .00000163  00000+0  71509-4 0  9998
2 39089  98.4072 329.9894 0010323 327.9503  32.1054 14.35604180641102
BRITE-AUSTRIA           
1 39091U 13009F   25145.42466176  .00000192  00000+0  80346-4 0  9994
2 39091  98.3882 329.7748 0009454 323.8354  36.2192 14.36302505641386
IRIS                    
1 39197U 13033A   25145.57727642  .00001216  00000+0  14994-3 0  9995
2 39197  97.9526 340.9237 0025851 143.1355 217.1643 14.84530632642844
HISAKI (SPRINT-A)       
1 39253U 13049A   25145.36076903  .00000127  00000+0  84826-4 0  9991
2 39253  29.7211  31.6558 0136702 112.8947 248.6118 13.55490874578764
CASSIOPE                
1 39265U 13055A   25145.58584461  .00014406 -38965-6  23010-3 0  9999
2 39265  80.9409 166.6280 0392540 261.5213  94.1344 14.97262104609151
STSAT-3                 
1 39422U 13066G   25145.58211780  .00002584  00000+0  21377-3 0  9996
2 39422  97.5600 119.1553 0019101 285.6522  74.2593 14.99634874626050
SWARM B                 
1 39451U 13067A   25145.59980699  .00003328  00000+0  13140-3 0  9998
2 39451  87.7426  99.7524 0003471  88.3210 271.8435 15.25169876624104
SWARM A                 
1 39452U 13067B   25145.56999605  .00006893  00000+0  16031-3 0  9995
2 39452  87.3432 198.9275 0003158  98.5961 261.5653 15.42109641646353
SWARM C                 
1 39453U 13067C   25145.56993630  .00006914  00000+0  16080-3 0  9996
2 39453  87.3431 197.5188 0003196  99.4208 260.7409 15.42106678646310
BRITE-CA1 (TORONTO)     
1 40020U 14033L   25145.34194749  .00000988  00000+0  15874-3 0  9997
2 40020  97.9236 277.9533 0081511  78.6941 282.3412 14.71592278585153
OCO 2                   
1 40059U 14035A   25145.58424353  .00000436  00000+0  10687-3 0  9999
2 40059  98.2010  87.4636 0001719  87.6859 272.4536 14.57088464579608
BRITE-PL2 (HEWELIUSZ)   
1 40119U 14049B   25145.53608580  .00001475  00000+0  14919-3 0  9998
2 40119  97.8890 250.7408 0013533 318.4568  41.5621 14.92499522583589
MMS 1                   
1 40482U 15011A   25145.58335648 -.00000202  00000+0  00000+0 0  9998
2 40482  64.2043 355.7288 8727049 159.1408 289.5129  0.28577332  1376
MMS 2                   
1 40483U 15011B   25145.58335648 -.00000202  00000+0  00000+0 0  9999
2 40483  64.1886 355.7347 8725272 159.1329 289.5312  0.28568291  1373
MMS 3                   
1 40484U 15011C   25145.58335648 -.00000202  00000+0  00000+0 0  9990
2 40484  64.2234 355.7177 8724921 159.1400 289.5010  0.28577328  1379
MMS 4                   
1 40485U 15011D   25145.58335648 -.00000202  00000+0  00000+0 0  9991
2 40485  64.2228 355.7304 8724865 159.1295 285.0758  0.28622454  1375
ASTROSAT                
1 40930U 15052A   25145.31802692  .00001609  00000+0  11789-3 0  9991
2 40930   5.9973  64.8382 0008734 260.1497  99.7644 14.81391119522199
DAMPE                   
1 41173U 15078A   25145.55791102  .00001370  00000+0  50662-4 0  9997
2 41173  97.4477 144.6949 0012858  18.9065 341.2650 15.29391762525273
PISAT                   
1 41784U 16059B   25145.49475646  .00001006  00000+0  18304-3 0  9992
2 41784  97.8162 158.0182 0029719   6.6279 353.5313 14.67904034462847
HXMT (HUIYAN)           
1 42758U 17034A   25145.53986280  .00003280  00000+0  18912-3 0  9995
2 42758  43.0134 173.5710 0035905 218.6870 141.1403 15.13663201438828
FLYING LAPTOP           
1 42831U 17042G   25145.56369639  .00001660  00000+0  14252-3 0  9995
2 42831  97.4067 313.9096 0012398  11.9849 348.1667 14.98682749428354
ZHANGHENG 1 (CSES)      
1 43194U 18015C   25145.60384704  .00007838  00000+0  36057-3 0  9994
2 43194  97.6466 299.5239 0011155 206.2618 153.8052 15.20568002405730
SALSAT                  
1 46495U 20068K   25145.36956344  .00005476  00000+0  23916-3 0  9996
2 46495  97.8589 122.6989 0010424 206.7868 153.2830 15.22525734256215
IXPE                    
1 49954U 21121A   25145.58335648  .00005294  00000+0  29976-3 0  9992
2 49954   0.2312 357.7674 0008448 354.9908 171.7526 15.05342268  5013
